{
  "type": "FeatureCollection",
  "features": [
    {
      "type": "Feature",
      "properties": {
        "norad_id": 59626,
        "name": "LEGION 2",
        "group": "resource",
        "lat": -8.057430376151514,
        "lon": -125.89295313906274,
        "alt_km": 523.620112035801,
        "timestamp": "2025-12-06T09:34:16.575834+00:00",
        "meta_object_name": "LEGION 2",
        "meta_object_id": "2024-081B",
        "meta_epoch": "2025-12-05T21:39:30.068640",
        "meta_mean_motion": 15.16387214,
        "meta_eccentricity": 0.0006106,
        "meta_inclination": 97.5226,
        "meta_ra_of_asc_node": 54.6868,
        "meta_arg_of_pericenter": 321.5688,
        "meta_mean_anomaly": 38.511,
        "meta_ephemeris_type": 0,
        "meta_classification_type": "U",
        "meta_norad_cat_id": 59626,
        "meta_element_set_no": 999,
        "meta_rev_at_epoch": 8824,
        "meta_bstar": 0.00044599734,
        "meta_mean_motion_dot": 8.601e-05,
        "meta_mean_motion_ddot": 0,
        "tle_line1": "1 59626U 24081B   25339.90243135  .00008601  00000+0  44600-3 0  9993",
        "tle_line2": "2 59626  97.5226  54.6868 0006106 321.5688  38.5110 15.16387214 88242"
      },
      "geometry": {
        "type": "Point",
        "coordinates": [
          -125.89295313906274,
          -8.057430376151514
        ]
      }
    },
    {
      "type": "Feature",
      "properties": {
        "norad_id": 60182,
        "name": "ALOS-4 (DAICHI-4)",
        "group": "resource",
        "lat": -32.00646370033496,
        "lon": 80.33044525418453,
        "alt_km": 637.769165326813,
        "timestamp": "2025-12-06T09:34:16.575844+00:00",
        "meta_object_name": "ALOS-4 (DAICHI-4)",
        "meta_object_id": "2024-123A",
        "meta_epoch": "2025-12-05T22:21:17.611776",
        "meta_mean_motion": 14.79468095,
        "meta_eccentricity": 0.00014262,
        "meta_inclination": 97.9235,
        "meta_ra_of_asc_node": 74.8759,
        "meta_arg_of_pericenter": 101.505,
        "meta_mean_anomaly": 258.6322,
        "meta_ephemeris_type": 0,
        "meta_classification_type": "U",
        "meta_norad_cat_id": 60182,
        "meta_element_set_no": 999,
        "meta_rev_at_epoch": 7730,
        "meta_bstar": 0.00053767524,
        "meta_mean_motion_dot": 3.966e-05,
        "meta_mean_motion_ddot": 0,
        "tle_line1": "1 60182U 24123A   25339.93145384  .00003966  00000+0  53768-3 0  9993",
        "tle_line2": "2 60182  97.9235  74.8759 0001426 101.5050 258.6322 14.79468095 77307"
      },
      "geometry": {
        "type": "Point",
        "coordinates": [
          80.33044525418453,
          -32.00646370033496
        ]
      }
    },
    {
      "type": "Feature",
      "properties": {
        "norad_id": 60452,
        "name": "LEGION 3",
        "group": "resource",
        "lat": -10.774122467518755,
        "lon": 175.09696821426357,
        "alt_km": 512.0509635950366,
        "timestamp": "2025-12-06T09:34:16.575855+00:00",
        "meta_object_name": "LEGION 3",
        "meta_object_id": "2024-146A",
        "meta_epoch": "2025-12-05T12:09:02.236032",
        "meta_mean_motion": 15.15645403,
        "meta_eccentricity": 0.001401,
        "meta_inclination": 45.0024,
        "meta_ra_of_asc_node": 348.9065,
        "meta_arg_of_pericenter": 158.2247,
        "meta_mean_anomaly": 201.9229,
        "meta_ephemeris_type": 0,
        "meta_classification_type": "U",
        "meta_norad_cat_id": 60452,
        "meta_element_set_no": 999,
        "meta_rev_at_epoch": 7263,
        "meta_bstar": 0.00052441377,
        "meta_mean_motion_dot": 9.913e-05,
        "meta_mean_motion_ddot": 0,
        "tle_line1": "1 60452U 24146A   25339.50627588  .00009913  00000+0  52441-3 0  9997",
        "tle_line2": "2 60452  45.0024 348.9065 0014010 158.2247 201.9229 15.15645403 72631"
      },
      "geometry": {
        "type": "Point",
        "coordinates": [
          175.09696821426357,
          -10.774122467518755
        ]
      }
    },
    {
      "type": "Feature",
      "properties": {
        "norad_id": 60453,
        "name": "LEGION 4",
        "group": "resource",
        "lat": -7.445581789454892,
        "lon": -96.64241063955109,
        "alt_km": 519.4052303366107,
        "timestamp": "2025-12-06T09:34:16.575865+00:00",
        "meta_object_name": "LEGION 4",
        "meta_object_id": "2024-146B",
        "meta_epoch": "2025-12-05T23:14:35.539296",
        "meta_mean_motion": 15.15716184,
        "meta_eccentricity": 0.00099444,
        "meta_inclination": 45.0391,
        "meta_ra_of_asc_node": 78.1598,
        "meta_arg_of_pericenter": 275.6209,
        "meta_mean_anomaly": 84.3536,
        "meta_ephemeris_type": 0,
        "meta_classification_type": "U",
        "meta_norad_cat_id": 60453,
        "meta_element_set_no": 999,
        "meta_rev_at_epoch": 7155,
        "meta_bstar": 0.0004601924,
        "meta_mean_motion_dot": 8.672e-05,
        "meta_mean_motion_ddot": 0,
        "tle_line1": "1 60453U 24146B   25339.96846689  .00008672  00000+0  46019-3 0  9998",
        "tle_line2": "2 60453  45.0391  78.1598 0009944 275.6209  84.3536 15.15716184 71553"
      },
      "geometry": {
        "type": "Point",
        "coordinates": [
          -96.64241063955109,
          -7.445581789454892
        ]
      }
    },
    {
      "type": "Feature",
      "properties": {
        "norad_id": 60989,
        "name": "SENTINEL-2C",
        "group": "resource",
        "lat": 58.42571137748788,
        "lon": -112.82673299458028,
        "alt_km": 782.6247075929887,
        "timestamp": "2025-12-06T09:34:16.575875+00:00",
        "meta_object_name": "SENTINEL-2C",
        "meta_object_id": "2024-157A",
        "meta_epoch": "2025-12-05T22:56:25.455552",
        "meta_mean_motion": 14.30814755,
        "meta_eccentricity": 0.00010424,
        "meta_inclination": 98.5686,
        "meta_ra_of_asc_node": 52.5358,
        "meta_arg_of_pericenter": 105.3336,
        "meta_mean_anomaly": 254.7962,
        "meta_ephemeris_type": 0,
        "meta_classification_type": "U",
        "meta_norad_cat_id": 60989,
        "meta_element_set_no": 999,
        "meta_rev_at_epoch": 6535,
        "meta_bstar": 0.0001353455,
        "meta_mean_motion_dot": 3.11e-06,
        "meta_mean_motion_ddot": 0,
        "tle_line1": "1 60989U 24157A   25339.95585018  .00000311  00000+0  13535-3 0  9998",
        "tle_line2": "2 60989  98.5686  52.5358 0001042 105.3336 254.7962 14.30814755 65354"
      },
      "geometry": {
        "type": "Point",
        "coordinates": [
          -112.82673299458028,
          58.42571137748788
        ]
      }
    },
    {
      "type": "Feature",
      "properties": {
        "norad_id": 61735,
        "name": "IONOSFERA-M 1",
        "group": "resource",
        "lat": -31.13701039006306,
        "lon": 24.96187280046684,
        "alt_km": 823.0844659420363,
        "timestamp": "2025-12-06T09:34:16.575885+00:00",
        "meta_object_name": "IONOSFERA-M 1",
        "meta_object_id": "2024-199A",
        "meta_epoch": "2025-12-05T22:27:11.824128",
        "meta_mean_motion": 14.22711629,
        "meta_eccentricity": 0.00012774,
        "meta_inclination": 98.7415,
        "meta_ra_of_asc_node": 209.8357,
        "meta_arg_of_pericenter": 31.4566,
        "meta_mean_anomaly": 328.6688,
        "meta_ephemeris_type": 0,
        "meta_classification_type": "U",
        "meta_norad_cat_id": 61735,
        "meta_element_set_no": 999,
        "meta_rev_at_epoch": 10022,
        "meta_bstar": 8.6200172e-05,
        "meta_mean_motion_dot": 1.49e-06,
        "meta_mean_motion_ddot": 0,
        "tle_line1": "1 61735U 24199A   25339.93555352  .00000149  00000+0  86200-4 0  9999",
        "tle_line2": "2 61735  98.7415 209.8357 0001277  31.4566 328.6688 14.22711629100225"
      },
      "geometry": {
        "type": "Point",
        "coordinates": [
          24.96187280046684,
          -31.13701039006306
        ]
      }
    },
    {
      "type": "Feature",
      "properties": {
        "norad_id": 61736,
        "name": "IONOSFERA-M 2",
        "group": "resource",
        "lat": 33.49880651670642,
        "lon": -155.63638224011328,
        "alt_km": 813.9257682307061,
        "timestamp": "2025-12-06T09:34:16.575895+00:00",
        "meta_object_name": "IONOSFERA-M 2",
        "meta_object_id": "2024-199B",
        "meta_epoch": "2025-12-05T21:35:49.702848",
        "meta_mean_motion": 14.22713855,
        "meta_eccentricity": 0.00014584,
        "meta_inclination": 98.7406,
        "meta_ra_of_asc_node": 209.7129,
        "meta_arg_of_pericenter": 118.8961,
        "meta_mean_anomaly": 241.2364,
        "meta_ephemeris_type": 0,
        "meta_classification_type": "U",
        "meta_norad_cat_id": 61736,
        "meta_element_set_no": 999,
        "meta_rev_at_epoch": 10334,
        "meta_bstar": 9.1188376e-05,
        "meta_mean_motion_dot": 1.6e-06,
        "meta_mean_motion_ddot": 0,
        "tle_line1": "1 61736U 24199B   25339.89988082  .00000160  00000+0  91188-4 0  9999",
        "tle_line2": "2 61736  98.7406 209.7129 0001458 118.8961 241.2364 14.22713855103342"
      },
      "geometry": {
        "type": "Point",
        "coordinates": [
          -155.63638224011328,
          33.49880651670642
        ]
      }
    }
  ]
}